[{"OBJECT_NAME":"IRIDIUM 105","OBJECT_ID":"2017-003E","EPOCH":"2026-03-09T19:29:46.518144","MEAN_MOTION":14.34401202,"ECCENTRICITY":0.0002251,"INCLINATION":86.3921,"RA_OF_ASC_NODE":98.4421,"ARG_OF_PERICENTER":92.6468,"MEAN_ANOMALY":267.4986,"EPHEMERIS_TYPE":0,"CLASSIFICATION_TYPE":"U","NORAD_CAT_ID":41921,"ELEMENT_SET_NO":999,"REV_AT_EPOCH":48089,"BSTAR":7.7196279e-5,"MEAN_MOTION_DOT":2.37e-6,"MEAN_MOTION_DDOT":0},{"OBJECT_NAME":"IRIDIUM 171","OBJECT_ID":"2019-002H","EPOCH":"2026-03-09T22:48:42.966720","MEAN_MOTION":14.34217733,"ECCENTRICITY":0.00021254,"INCLINATION":86.3982,"RA_OF_ASC_NODE":35.3262,"ARG_OF_PERICENTER":91.8913,"MEAN_ANOMALY":268.2526,"EPHEMERIS_TYPE":0,"CLASSIFICATION_TYPE":"U","NORAD_CAT_ID":43929,"ELEMENT_SET_NO":999,"REV_AT_EPOCH":37473,"BSTAR":1.309919e-5,"MEAN_MOTION_DOT":5.6e-7,"MEAN_MOTION_DDOT":0}]
